[
	{
		"OBJECT_NAME": "STARLINK-31488",
		"OBJECT_ID": "2024-036M",
		"EPOCH": "2024-11-03T10:31:54.693408",
		"MEAN_MOTION": 15.30187496,
		"ECCENTRICITY": 9.18e-5,
		"INCLINATION": 53.1617,
		"RA_OF_ASC_NODE": 199.7216,
		"ARG_OF_PERICENTER": 57.5144,
		"MEAN_ANOMALY": 302.5945,
		"EPHEMERIS_TYPE": 0,
		"CLASSIFICATION_TYPE": "U",
		"NORAD_CAT_ID": 59009,
		"ELEMENT_SET_NO": 999,
		"REV_AT_EPOCH": 4011,
		"BSTAR": 7.6674e-5,
		"MEAN_MOTION_DOT": 1.912e-5,
		"MEAN_MOTION_DDOT": 0
	},
	{
		"OBJECT_NAME": "STARLINK-31528",
		"OBJECT_ID": "2024-036N",
		"EPOCH": "2024-11-03T10:16:51.771072",
		"MEAN_MOTION": 15.30211755,
		"ECCENTRICITY": 0.0001213,
		"INCLINATION": 53.1598,
		"RA_OF_ASC_NODE": 200.3667,
		"ARG_OF_PERICENTER": 40.8384,
		"MEAN_ANOMALY": 319.2707,
		"EPHEMERIS_TYPE": 0,
		"CLASSIFICATION_TYPE": "U",
		"NORAD_CAT_ID": 59010,
		"ELEMENT_SET_NO": 999,
		"REV_AT_EPOCH": 4010,
		"BSTAR": 0.00011055,
		"MEAN_MOTION_DOT": 2.917e-5,
		"MEAN_MOTION_DDOT": 0
	},
	{
		"OBJECT_NAME": "STARLINK-31491",
		"OBJECT_ID": "2024-036P",
		"EPOCH": "2024-11-03T10:18:22.696704",
		"MEAN_MOTION": 15.3020736,
		"ECCENTRICITY": 0.0001101,
		"INCLINATION": 53.1614,
		"RA_OF_ASC_NODE": 200.3684,
		"ARG_OF_PERICENTER": 92.4577,
		"MEAN_ANOMALY": 267.6549,
		"EPHEMERIS_TYPE": 0,
		"CLASSIFICATION_TYPE": "U",
		"NORAD_CAT_ID": 59011,
		"ELEMENT_SET_NO": 999,
		"REV_AT_EPOCH": 4010,
		"BSTAR": 9.3972e-5,
		"MEAN_MOTION_DOT": 2.426e-5,
		"MEAN_MOTION_DDOT": 0
	},
	{
		"OBJECT_NAME": "STARLINK-31465",
		"OBJECT_ID": "2024-036Q",
		"EPOCH": "2024-11-03T10:10:45.981984",
		"MEAN_MOTION": 15.30280801,
		"ECCENTRICITY": 0.0001166,
		"INCLINATION": 53.1603,
		"RA_OF_ASC_NODE": 200.3388,
		"ARG_OF_PERICENTER": 88.9874,
		"MEAN_ANOMALY": 271.126,
		"EPHEMERIS_TYPE": 0,
		"CLASSIFICATION_TYPE": "U",
		"NORAD_CAT_ID": 59012,
		"ELEMENT_SET_NO": 999,
		"REV_AT_EPOCH": 4010,
		"BSTAR": 0.0013415,
		"MEAN_MOTION_DOT": 0.00039684,
		"MEAN_MOTION_DDOT": 0
	},
	{
		"OBJECT_NAME": "STARLINK-31389",
		"OBJECT_ID": "2024-036R",
		"EPOCH": "2024-11-03T10:15:21.121920",
		"MEAN_MOTION": 15.30213048,
		"ECCENTRICITY": 0.0001058,
		"INCLINATION": 53.1599,
		"RA_OF_ASC_NODE": 200.3562,
		"ARG_OF_PERICENTER": 69.6796,
		"MEAN_ANOMALY": 290.4318,
		"EPHEMERIS_TYPE": 0,
		"CLASSIFICATION_TYPE": "U",
		"NORAD_CAT_ID": 59013,
		"ELEMENT_SET_NO": 999,
		"REV_AT_EPOCH": 4011,
		"BSTAR": 0.00060421,
		"MEAN_MOTION_DOT": 0.00017585,
		"MEAN_MOTION_DDOT": 0
	},
	{
		"OBJECT_NAME": "STARLINK-31454",
		"OBJECT_ID": "2024-036S",
		"EPOCH": "2024-11-02T23:07:51.230496",
		"MEAN_MOTION": 15.30220137,
		"ECCENTRICITY": 2.86e-5,
		"INCLINATION": 53.1607,
		"RA_OF_ASC_NODE": 202.4349,
		"ARG_OF_PERICENTER": 169.4273,
		"MEAN_ANOMALY": 190.6734,
		"EPHEMERIS_TYPE": 0,
		"CLASSIFICATION_TYPE": "U",
		"NORAD_CAT_ID": 59014,
		"ELEMENT_SET_NO": 999,
		"REV_AT_EPOCH": 4003,
		"BSTAR": 0.00024203,
		"MEAN_MOTION_DOT": 6.821e-5,
		"MEAN_MOTION_DDOT": 0
	},
	{
		"OBJECT_NAME": "STARLINK-31521",
		"OBJECT_ID": "2024-036T",
		"EPOCH": "2024-11-03T10:04:43.446720",
		"MEAN_MOTION": 15.30189196,
		"ECCENTRICITY": 0.0001212,
		"INCLINATION": 53.1592,
		"RA_OF_ASC_NODE": 200.3088,
		"ARG_OF_PERICENTER": 90.3414,
		"MEAN_ANOMALY": 269.7726,
		"EPHEMERIS_TYPE": 0,
		"CLASSIFICATION_TYPE": "U",
		"NORAD_CAT_ID": 59015,
		"ELEMENT_SET_NO": 999,
		"REV_AT_EPOCH": 4010,
		"BSTAR": 3.2607e-5,
		"MEAN_MOTION_DOT": 6.06e-6,
		"MEAN_MOTION_DDOT": 0
	},
	{
		"OBJECT_NAME": "STARLINK-31526",
		"OBJECT_ID": "2024-036U",
		"EPOCH": "2024-11-03T08:28:01.108704",
		"MEAN_MOTION": 15.39634268,
		"ECCENTRICITY": 8.27e-5,
		"INCLINATION": 53.1596,
		"RA_OF_ASC_NODE": 179.2497,
		"ARG_OF_PERICENTER": 64.0329,
		"MEAN_ANOMALY": 296.0761,
		"EPHEMERIS_TYPE": 0,
		"CLASSIFICATION_TYPE": "U",
		"NORAD_CAT_ID": 59016,
		"ELEMENT_SET_NO": 999,
		"REV_AT_EPOCH": 4039,
		"BSTAR": 7.7643e-5,
		"MEAN_MOTION_DOT": 2.709e-5,
		"MEAN_MOTION_DDOT": 0
	},
	{
		"OBJECT_NAME": "STARLINK-31406",
		"OBJECT_ID": "2024-036V",
		"EPOCH": "2024-11-03T10:01:39.274752",
		"MEAN_MOTION": 15.3020942,
		"ECCENTRICITY": 5.85e-5,
		"INCLINATION": 53.16,
		"RA_OF_ASC_NODE": 200.2961,
		"ARG_OF_PERICENTER": 125.6781,
		"MEAN_ANOMALY": 234.4275,
		"EPHEMERIS_TYPE": 0,
		"CLASSIFICATION_TYPE": "U",
		"NORAD_CAT_ID": 59017,
		"ELEMENT_SET_NO": 999,
		"REV_AT_EPOCH": 4010,
		"BSTAR": 7.6808e-5,
		"MEAN_MOTION_DOT": 1.917e-5,
		"MEAN_MOTION_DDOT": 0
	},
	{
		"OBJECT_NAME": "STARLINK-31527",
		"OBJECT_ID": "2024-036W",
		"EPOCH": "2024-11-03T09:51:01.758528",
		"MEAN_MOTION": 15.30215656,
		"ECCENTRICITY": 0.0001204,
		"INCLINATION": 53.1587,
		"RA_OF_ASC_NODE": 200.254,
		"ARG_OF_PERICENTER": 46.8558,
		"MEAN_ANOMALY": 313.2543,
		"EPHEMERIS_TYPE": 0,
		"CLASSIFICATION_TYPE": "U",
		"NORAD_CAT_ID": 59018,
		"ELEMENT_SET_NO": 999,
		"REV_AT_EPOCH": 4010,
		"BSTAR": 0.00023255,
		"MEAN_MOTION_DOT": 6.538e-5,
		"MEAN_MOTION_DDOT": 0
	},
	{
		"OBJECT_NAME": "STARLINK-31436",
		"OBJECT_ID": "2024-036X",
		"EPOCH": "2024-11-03T10:19:54.127776",
		"MEAN_MOTION": 15.30212229,
		"ECCENTRICITY": 0.000108,
		"INCLINATION": 53.1597,
		"RA_OF_ASC_NODE": 200.3739,
		"ARG_OF_PERICENTER": 65.5947,
		"MEAN_ANOMALY": 294.5167,
		"EPHEMERIS_TYPE": 0,
		"CLASSIFICATION_TYPE": "U",
		"NORAD_CAT_ID": 59019,
		"ELEMENT_SET_NO": 999,
		"REV_AT_EPOCH": 4010,
		"BSTAR": 0.00014642,
		"MEAN_MOTION_DOT": 3.981e-5,
		"MEAN_MOTION_DDOT": 0
	},
	{
		"OBJECT_NAME": "STARLINK-30996",
		"OBJECT_ID": "2024-038A",
		"EPOCH": "2024-11-03T07:06:58.157280",
		"MEAN_MOTION": 15.25901,
		"ECCENTRICITY": 6.35e-5,
		"INCLINATION": 43.0022,
		"RA_OF_ASC_NODE": 278.037,
		"ARG_OF_PERICENTER": 251.2579,
		"MEAN_ANOMALY": 108.8204,
		"EPHEMERIS_TYPE": 0,
		"CLASSIFICATION_TYPE": "U",
		"NORAD_CAT_ID": 59023,
		"ELEMENT_SET_NO": 999,
		"REV_AT_EPOCH": 4102,
		"BSTAR": -8.2267e-5,
		"MEAN_MOTION_DOT": -2.408e-5,
		"MEAN_MOTION_DDOT": 0
	},
	{
		"OBJECT_NAME": "STARLINK-31006",
		"OBJECT_ID": "2024-038B",
		"EPOCH": "2024-11-03T12:48:11.515104",
		"MEAN_MOTION": 15.40746675,
		"ECCENTRICITY": 0.0001444,
		"INCLINATION": 43.006,
		"RA_OF_ASC_NODE": 245.2126,
		"ARG_OF_PERICENTER": 294.1433,
		"MEAN_ANOMALY": 65.9272,
		"EPHEMERIS_TYPE": 0,
		"CLASSIFICATION_TYPE": "U",
		"NORAD_CAT_ID": 59024,
		"ELEMENT_SET_NO": 999,
		"REV_AT_EPOCH": 4005,
		"BSTAR": 0.0008754,
		"MEAN_MOTION_DOT": 0.00036495,
		"MEAN_MOTION_DDOT": 0
	},
	{
		"OBJECT_NAME": "STARLINK-31178",
		"OBJECT_ID": "2024-038C",
		"EPOCH": "2024-11-03T07:03:42.616800",
		"MEAN_MOTION": 15.25934073,
		"ECCENTRICITY": 9.44e-5,
		"INCLINATION": 43.0026,
		"RA_OF_ASC_NODE": 278.0191,
		"ARG_OF_PERICENTER": 239.656,
		"MEAN_ANOMALY": 120.4198,
		"EPHEMERIS_TYPE": 0,
		"CLASSIFICATION_TYPE": "U",
		"NORAD_CAT_ID": 59025,
		"ELEMENT_SET_NO": 999,
		"REV_AT_EPOCH": 3954,
		"BSTAR": 0.0016205,
		"MEAN_MOTION_DOT": 0.00042407,
		"MEAN_MOTION_DDOT": 0
	},
	{
		"OBJECT_NAME": "STARLINK-31227",
		"OBJECT_ID": "2024-038D",
		"EPOCH": "2024-11-03T07:00:26.073216",
		"MEAN_MOTION": 15.2589442,
		"ECCENTRICITY": 0.0001315,
		"INCLINATION": 43.001,
		"RA_OF_ASC_NODE": 278.0021,
		"ARG_OF_PERICENTER": 240.6064,
		"MEAN_ANOMALY": 119.4656,
		"EPHEMERIS_TYPE": 0,
		"CLASSIFICATION_TYPE": "U",
		"NORAD_CAT_ID": 59026,
		"ELEMENT_SET_NO": 999,
		"REV_AT_EPOCH": 3965,
		"BSTAR": 0.00015322,
		"MEAN_MOTION_DOT": 3.751e-5,
		"MEAN_MOTION_DDOT": 0
	},
	{
		"OBJECT_NAME": "STARLINK-30863",
		"OBJECT_ID": "2024-038E",
		"EPOCH": "2024-11-03T14:48:27.356256",
		"MEAN_MOTION": 15.25946225,
		"ECCENTRICITY": 0.000148,
		"INCLINATION": 42.9993,
		"RA_OF_ASC_NODE": 276.1404,
		"ARG_OF_PERICENTER": 274.3126,
		"MEAN_ANOMALY": 85.7556,
		"EPHEMERIS_TYPE": 0,
		"CLASSIFICATION_TYPE": "U",
		"NORAD_CAT_ID": 59027,
		"ELEMENT_SET_NO": 999,
		"REV_AT_EPOCH": 3959,
		"BSTAR": 0.00016425,
		"MEAN_MOTION_DOT": 4.046e-5,
		"MEAN_MOTION_DDOT": 0
	},
	{
		"OBJECT_NAME": "STARLINK-31206",
		"OBJECT_ID": "2024-038F",
		"EPOCH": "2024-11-03T04:47:43.957248",
		"MEAN_MOTION": 15.40688481,
		"ECCENTRICITY": 5.0e-5,
		"INCLINATION": 42.9994,
		"RA_OF_ASC_NODE": 233.7381,
		"ARG_OF_PERICENTER": 210.7663,
		"MEAN_ANOMALY": 149.3164,
		"EPHEMERIS_TYPE": 0,
		"CLASSIFICATION_TYPE": "U",
		"NORAD_CAT_ID": 59028,
		"ELEMENT_SET_NO": 999,
		"REV_AT_EPOCH": 4017,
		"BSTAR": 5.088e-5,
		"MEAN_MOTION_DOT": 1.822e-5,
		"MEAN_MOTION_DDOT": 0
	},
	{
		"OBJECT_NAME": "STARLINK-31224",
		"OBJECT_ID": "2024-038G",
		"EPOCH": "2024-11-03T14:45:13.043520",
		"MEAN_MOTION": 15.25913163,
		"ECCENTRICITY": 7.64e-5,
		"INCLINATION": 43.0001,
		"RA_OF_ASC_NODE": 276.125,
		"ARG_OF_PERICENTER": 276.4098,
		"MEAN_ANOMALY": 83.6666,
		"EPHEMERIS_TYPE": 0,
		"CLASSIFICATION_TYPE": "U",
		"NORAD_CAT_ID": 59029,
		"ELEMENT_SET_NO": 999,
		"REV_AT_EPOCH": 3970,
		"BSTAR": 0.00010699,
		"MEAN_MOTION_DOT": 2.543e-5,
		"MEAN_MOTION_DDOT": 0
	},
	{
		"OBJECT_NAME": "STARLINK-31186",
		"OBJECT_ID": "2024-038H",
		"EPOCH": "2024-11-03T14:41:57.819264",
		"MEAN_MOTION": 15.25901561,
		"ECCENTRICITY": 0.0001682,
		"INCLINATION": 43.0019,
		"RA_OF_ASC_NODE": 276.1097,
		"ARG_OF_PERICENTER": 264.7536,
		"MEAN_ANOMALY": 95.3123,
		"EPHEMERIS_TYPE": 0,
		"CLASSIFICATION_TYPE": "U",
		"NORAD_CAT_ID": 59030,
		"ELEMENT_SET_NO": 999,
		"REV_AT_EPOCH": 3970,
		"BSTAR": 0.00010851,
		"MEAN_MOTION_DOT": 2.581e-5,
		"MEAN_MOTION_DDOT": 0
	},
	{
		"OBJECT_NAME": "STARLINK-31211",
		"OBJECT_ID": "2024-038J",
		"EPOCH": "2024-11-03T14:38:42.568224",
		"MEAN_MOTION": 15.25950073,
		"ECCENTRICITY": 0.0001212,
		"INCLINATION": 43.0027,
		"RA_OF_ASC_NODE": 276.0951,
		"ARG_OF_PERICENTER": 214.7872,
		"MEAN_ANOMALY": 145.29,
		"EPHEMERIS_TYPE": 0,
		"CLASSIFICATION_TYPE": "U",
		"NORAD_CAT_ID": 59031,
		"ELEMENT_SET_NO": 999,
		"REV_AT_EPOCH": 3959,
		"BSTAR": 0.00076717,
		"MEAN_MOTION_DOT": 0.00019888,
		"MEAN_MOTION_DDOT": 0
	}
]
